{
  "type": "FeatureCollection",
  "features": [
    {
      "type": "Feature",
      "properties": {
        "norad_id": 66945,
        "name": "STARLINK-36110",
        "group": "last-30-days",
        "lat": 4.723260558401539,
        "lon": 39.31274647758137,
        "alt_km": 298.3921639837499,
        "timestamp": "2025-12-15T15:53:18.663539+00:00",
        "meta_object_name": "STARLINK-36110",
        "meta_object_id": "2025-286W",
        "meta_epoch": "2025-12-14T20:00:06.000192",
        "meta_mean_motion": 15.93840001,
        "meta_eccentricity": 6.77e-05,
        "meta_inclination": 53.1559,
        "meta_ra_of_asc_node": 39.9872,
        "meta_arg_of_pericenter": 76.7903,
        "meta_mean_anomaly": 215.6011,
        "meta_ephemeris_type": 0,
        "meta_classification_type": "U",
        "meta_norad_cat_id": 66945,
        "meta_element_set_no": 999,
        "meta_rev_at_epoch": 233,
        "meta_bstar": -0.0041086532,
        "meta_mean_motion_dot": -0.01531452,
        "meta_mean_motion_ddot": 0.00067681965,
        "tle_line1": "1 66945U 25286W   25348.83340278 -.01531452  67682-3 -41087-2 0  9997",
        "tle_line2": "2 66945  53.1559  39.9872 0000677  76.7903 215.6011 15.93840001  2335"
      },
      "geometry": {
        "type": "Point",
        "coordinates": [
          39.31274647758137,
          4.723260558401539
        ]
      }
    },
    {
      "type": "Feature",
      "properties": {
        "norad_id": 66946,
        "name": "STARLINK-36115",
        "group": "last-30-days",
        "lat": 6.238062500158369,
        "lon": 40.45829296301859,
        "alt_km": 297.9777116735586,
        "timestamp": "2025-12-15T15:53:18.663548+00:00",
        "meta_object_name": "STARLINK-36115",
        "meta_object_id": "2025-286X",
        "meta_epoch": "2025-12-14T20:00:06.000192",
        "meta_mean_motion": 15.93900857,
        "meta_eccentricity": 7.108e-05,
        "meta_inclination": 53.156,
        "meta_ra_of_asc_node": 39.9837,
        "meta_arg_of_pericenter": 73.7333,
        "meta_mean_anomaly": 220.3865,
        "meta_ephemeris_type": 0,
        "meta_classification_type": "U",
        "meta_norad_cat_id": 66946,
        "meta_element_set_no": 999,
        "meta_rev_at_epoch": 233,
        "meta_bstar": -0.0041099008,
        "meta_mean_motion_dot": -0.01536801,
        "meta_mean_motion_ddot": 0.00068157053,
        "tle_line1": "1 66946U 25286X   25348.83340278 -.01536801  68157-3 -41099-2 0  9992",
        "tle_line2": "2 66946  53.1560  39.9837 0000710  73.7333 220.3865 15.93900857  2337"
      },
      "geometry": {
        "type": "Point",
        "coordinates": [
          40.45829296301859,
          6.238062500158369
        ]
      }
    },
    {
      "type": "Feature",
      "properties": {
        "norad_id": 66947,
        "name": "STARLINK-36089",
        "group": "last-30-days",
        "lat": 9.455148625811445,
        "lon": 42.92217765923202,
        "alt_km": 297.1312005565742,
        "timestamp": "2025-12-15T15:53:18.663557+00:00",
        "meta_object_name": "STARLINK-36089",
        "meta_object_id": "2025-286Y",
        "meta_epoch": "2025-12-14T20:00:06.000192",
        "meta_mean_motion": 15.94032458,
        "meta_eccentricity": 7.566e-05,
        "meta_inclination": 53.1559,
        "meta_ra_of_asc_node": 39.976,
        "meta_arg_of_pericenter": 69.6894,
        "meta_mean_anomaly": 228.1228,
        "meta_ephemeris_type": 0,
        "meta_classification_type": "U",
        "meta_norad_cat_id": 66947,
        "meta_element_set_no": 999,
        "meta_rev_at_epoch": 233,
        "meta_bstar": -0.0041328029,
        "meta_mean_motion_dot": -0.01555949,
        "meta_mean_motion_ddot": 0.00069813324,
        "tle_line1": "1 66947U 25286Y   25348.83340278 -.01555949  69813-3 -41328-2 0  9992",
        "tle_line2": "2 66947  53.1559  39.9760 0000756  69.6894 228.1228 15.94032458  2330"
      },
      "geometry": {
        "type": "Point",
        "coordinates": [
          42.92217765923202,
          9.455148625811445
        ]
      }
    },
    {
      "type": "Feature",
      "properties": {
        "norad_id": 66948,
        "name": "STARLINK-36116",
        "group": "last-30-days",
        "lat": 8.073818922166623,
        "lon": 41.85802383106507,
        "alt_km": 297.5614035146982,
        "timestamp": "2025-12-15T15:53:18.663567+00:00",
        "meta_object_name": "STARLINK-36116",
        "meta_object_id": "2025-286Z",
        "meta_epoch": "2025-12-14T20:00:06.000192",
        "meta_mean_motion": 15.93968064,
        "meta_eccentricity": 5.725e-05,
        "meta_inclination": 53.156,
        "meta_ra_of_asc_node": 39.9792,
        "meta_arg_of_pericenter": 75.4578,
        "meta_mean_anomaly": 220.7658,
        "meta_ephemeris_type": 0,
        "meta_classification_type": "U",
        "meta_norad_cat_id": 66948,
        "meta_element_set_no": 999,
        "meta_rev_at_epoch": 233,
        "meta_bstar": -0.0040980956,
        "meta_mean_motion_dot": -0.01537834,
        "meta_mean_motion_ddot": 0.00068286809,
        "tle_line1": "1 66948U 25286Z   25348.83340278 -.01537834  68287-3 -40981-2 0  9994",
        "tle_line2": "2 66948  53.1560  39.9792 0000572  75.4578 220.7658 15.93968064  2333"
      },
      "geometry": {
        "type": "Point",
        "coordinates": [
          41.85802383106507,
          8.073818922166623
        ]
      }
    },
    {
      "type": "Feature",
      "properties": {
        "norad_id": 66949,
        "name": "STARLINK-36096",
        "group": "last-30-days",
        "lat": 10.877370271983432,
        "lon": 44.02934563553267,
        "alt_km": 296.8142190883964,
        "timestamp": "2025-12-15T15:53:18.663576+00:00",
        "meta_object_name": "STARLINK-36096",
        "meta_object_id": "2025-286AA",
        "meta_epoch": "2025-12-14T20:00:06.000192",
        "meta_mean_motion": 15.94091795,
        "meta_eccentricity": 6.51e-05,
        "meta_inclination": 53.156,
        "meta_ra_of_asc_node": 39.9726,
        "meta_arg_of_pericenter": 71.0352,
        "meta_mean_anomaly": 228.4068,
        "meta_ephemeris_type": 0,
        "meta_classification_type": "U",
        "meta_norad_cat_id": 66949,
        "meta_element_set_no": 999,
        "meta_rev_at_epoch": 233,
        "meta_bstar": -0.0041375436,
        "meta_mean_motion_dot": -0.01562554,
        "meta_mean_motion_ddot": 0.00070399492,
        "tle_line1": "1 66949U 25286AA  25348.83340278 -.01562554  70399-3 -41375-2 0  9997",
        "tle_line2": "2 66949  53.1560  39.9726 0000651  71.0352 228.4068 15.94091795  2330"
      },
      "geometry": {
        "type": "Point",
        "coordinates": [
          44.02934563553267,
          10.877370271983432
        ]
      }
    },
    {
      "type": "Feature",
      "properties": {
        "norad_id": 66950,
        "name": "STARLINK-36111",
        "group": "last-30-days",
        "lat": 13.829648124039062,
        "lon": 46.37436864962991,
        "alt_km": 296.108720223383,
        "timestamp": "2025-12-15T15:53:18.663586+00:00",
        "meta_object_name": "STARLINK-36111",
        "meta_object_id": "2025-286AB",
        "meta_epoch": "2025-12-14T20:00:06.000192",
        "meta_mean_motion": 15.94218768,
        "meta_eccentricity": 7.412e-05,
        "meta_inclination": 53.1561,
        "meta_ra_of_asc_node": 39.9656,
        "meta_arg_of_pericenter": 77.2397,
        "meta_mean_anomaly": 225.6218,
        "meta_ephemeris_type": 0,
        "meta_classification_type": "U",
        "meta_norad_cat_id": 66950,
        "meta_element_set_no": 999,
        "meta_rev_at_epoch": 233,
        "meta_bstar": -0.0041776036,
        "meta_mean_motion_dot": -0.01588044,
        "meta_mean_motion_ddot": 0.00072613274,
        "tle_line1": "1 66950U 25286AB  25348.83340278 -.01588044  72613-3 -41776-2 0  9997",
        "tle_line2": "2 66950  53.1561  39.9656 0000741  77.2397 225.6218 15.94218768  2339"
      },
      "geometry": {
        "type": "Point",
        "coordinates": [
          46.37436864962991,
          13.829648124039062
        ]
      }
    },
    {
      "type": "Feature",
      "properties": {
        "norad_id": 66951,
        "name": "STARLINK-35999",
        "group": "last-30-days",
        "lat": 15.399588835082383,
        "lon": 47.6522344585445,
        "alt_km": 295.68163110425303,
        "timestamp": "2025-12-15T15:53:18.663595+00:00",
        "meta_object_name": "STARLINK-35999",
        "meta_object_id": "2025-286AC",
        "meta_epoch": "2025-12-14T20:00:06.000192",
        "meta_mean_motion": 15.94284921,
        "meta_eccentricity": 6.888e-05,
        "meta_inclination": 53.1561,
        "meta_ra_of_asc_node": 39.9617,
        "meta_arg_of_pericenter": 74.078,
        "meta_mean_anomaly": 230.6012,
        "meta_ephemeris_type": 0,
        "meta_classification_type": "U",
        "meta_norad_cat_id": 66951,
        "meta_element_set_no": 999,
        "meta_rev_at_epoch": 233,
        "meta_bstar": -0.0041820567,
        "meta_mean_motion_dot": -0.01595245,
        "meta_mean_motion_ddot": 0.00073267585,
        "tle_line1": "1 66951U 25286AC  25348.83340278 -.01595245  73268-3 -41821-2 0  9997",
        "tle_line2": "2 66951  53.1561  39.9617 0000688  74.0780 230.6012 15.94284921  2330"
      },
      "geometry": {
        "type": "Point",
        "coordinates": [
          47.6522344585445,
          15.399588835082383
        ]
      }
    }
  ]
}